CCSDS_OMM_VERS = 2.0
CREATION_DATE  = 
ORIGINATOR     = 

OBJECT_NAME    = HORS 5
OBJECT_ID      = 2025-313AM
CENTER_NAME    = EARTH
REF_FRAME      = TEME
TIME_SYSTEM    = UTC
MEAN_ELEMENT_THEORY = SGP/SGP4

EPOCH          = 2026-01-16T11:48:29.104128
MEAN_MOTION    = 15.21195851
ECCENTRICITY   = .00114165
INCLINATION    = 97.4116
RA_OF_ASC_NODE = 93.6488
ARG_OF_PERICENTER = 165.1420
MEAN_ANOMALY   = 195.0153

EPHEMERIS_TYPE = 0
CLASSIFICATION_TYPE = U
NORAD_CAT_ID   = 67283
ELEMENT_SET_NO = 999
REV_AT_EPOCH   = 288
BSTAR          = .32090954E-3
MEAN_MOTION_DOT = .7101E-4
MEAN_MOTION_DDOT = 0

CCSDS_OMM_VERS = 2.0
CREATION_DATE  = 
ORIGINATOR     = 

OBJECT_NAME    = LOBACHEVSKY (RS83S)
OBJECT_ID      = 2025-313AN
CENTER_NAME    = EARTH
REF_FRAME      = TEME
TIME_SYSTEM    = UTC
MEAN_ELEMENT_THEORY = SGP/SGP4

EPOCH          = 2026-01-16T14:59:32.179200
MEAN_MOTION    = 15.21003507
ECCENTRICITY   = .00114284
INCLINATION    = 97.4099
RA_OF_ASC_NODE = 93.7725
ARG_OF_PERICENTER = 164.5199
MEAN_ANOMALY   = 195.6388

EPHEMERIS_TYPE = 0
CLASSIFICATION_TYPE = U
NORAD_CAT_ID   = 67284
ELEMENT_SET_NO = 999
REV_AT_EPOCH   = 290
BSTAR          = .12887964E-3
MEAN_MOTION_DOT = .2793E-4
MEAN_MOTION_DDOT = 0

CCSDS_OMM_VERS = 2.0
CREATION_DATE  = 
ORIGINATOR     = 

OBJECT_NAME    = NASBSAT-2
OBJECT_ID      = 2025-313AP
CENTER_NAME    = EARTH
REF_FRAME      = TEME
TIME_SYSTEM    = UTC
MEAN_ELEMENT_THEORY = SGP/SGP4

EPOCH          = 2026-01-16T11:47:15.229536
MEAN_MOTION    = 15.21253232
ECCENTRICITY   = .00110307
INCLINATION    = 97.4093
RA_OF_ASC_NODE = 93.6435
ARG_OF_PERICENTER = 166.5282
MEAN_ANOMALY   = 193.6250

EPHEMERIS_TYPE = 0
CLASSIFICATION_TYPE = U
NORAD_CAT_ID   = 67285
ELEMENT_SET_NO = 999
REV_AT_EPOCH   = 288
BSTAR          = .29152169E-3
MEAN_MOTION_DOT = .6454E-4
MEAN_MOTION_DDOT = 0

CCSDS_OMM_VERS = 2.0
CREATION_DATE  = 
ORIGINATOR     = 

OBJECT_NAME    = 2025-313AQ
OBJECT_ID      = 2025-313AQ
CENTER_NAME    = EARTH
REF_FRAME      = TEME
TIME_SYSTEM    = UTC
MEAN_ELEMENT_THEORY = SGP/SGP4

EPOCH          = 2026-01-16T22:49:28.704288
MEAN_MOTION    = 15.21252048
ECCENTRICITY   = .0010798
INCLINATION    = 97.4113
RA_OF_ASC_NODE = 94.1113
ARG_OF_PERICENTER = 159.8863
MEAN_ANOMALY   = 200.2800

EPHEMERIS_TYPE = 0
CLASSIFICATION_TYPE = U
NORAD_CAT_ID   = 67286
ELEMENT_SET_NO = 999
REV_AT_EPOCH   = 295
BSTAR          = .42043E-3
MEAN_MOTION_DOT = .9341E-4
MEAN_MOTION_DDOT = 0

CCSDS_OMM_VERS = 2.0
CREATION_DATE  = 
ORIGINATOR     = 

OBJECT_NAME    = LUCA (RS90S)
OBJECT_ID      = 2025-313AR
CENTER_NAME    = EARTH
REF_FRAME      = TEME
TIME_SYSTEM    = UTC
MEAN_ELEMENT_THEORY = SGP/SGP4

EPOCH          = 2026-01-16T11:45:26.676576
MEAN_MOTION    = 15.21374962
ECCENTRICITY   = .00106387
INCLINATION    = 97.4115
RA_OF_ASC_NODE = 93.6594
ARG_OF_PERICENTER = 163.2198
MEAN_ANOMALY   = 196.9392

EPHEMERIS_TYPE = 0
CLASSIFICATION_TYPE = U
NORAD_CAT_ID   = 67287
ELEMENT_SET_NO = 999
REV_AT_EPOCH   = 288
BSTAR          = .33363735E-3
MEAN_MOTION_DOT = .7423E-4
MEAN_MOTION_DDOT = 0

CCSDS_OMM_VERS = 2.0
CREATION_DATE  = 
ORIGINATOR     = 

OBJECT_NAME    = 2025-313AS
OBJECT_ID      = 2025-313AS
CENTER_NAME    = EARTH
REF_FRAME      = TEME
TIME_SYSTEM    = UTC
MEAN_ELEMENT_THEORY = SGP/SGP4

EPOCH          = 2026-01-16T14:56:14.731872
MEAN_MOTION    = 15.21229495
ECCENTRICITY   = .00125147
INCLINATION    = 97.4103
RA_OF_ASC_NODE = 93.7837
ARG_OF_PERICENTER = 155.6332
MEAN_ANOMALY   = 204.5498

EPHEMERIS_TYPE = 0
CLASSIFICATION_TYPE = U
NORAD_CAT_ID   = 67288
ELEMENT_SET_NO = 999
REV_AT_EPOCH   = 290
BSTAR          = .21289717E-3
MEAN_MOTION_DOT = .4692E-4
MEAN_MOTION_DDOT = 0

CCSDS_OMM_VERS = 2.0
CREATION_DATE  = 
ORIGINATOR     = 

OBJECT_NAME    = NASBSAT-1
OBJECT_ID      = 2025-313AT
CENTER_NAME    = EARTH
REF_FRAME      = TEME
TIME_SYSTEM    = UTC
MEAN_ELEMENT_THEORY = SGP/SGP4

EPOCH          = 2026-01-16T11:43:44.506848
MEAN_MOTION    = 15.21536808
ECCENTRICITY   = .0010522
INCLINATION    = 97.4116
RA_OF_ASC_NODE = 93.6615
ARG_OF_PERICENTER = 163.7222
MEAN_ANOMALY   = 196.4354

EPHEMERIS_TYPE = 0
CLASSIFICATION_TYPE = U
NORAD_CAT_ID   = 67289
ELEMENT_SET_NO = 999
REV_AT_EPOCH   = 288
BSTAR          = .45190663E-3
MEAN_MOTION_DOT = .1013E-3
MEAN_MOTION_DDOT = 0

CCSDS_OMM_VERS = 2.0
CREATION_DATE  = 
ORIGINATOR     = 

OBJECT_NAME    = SAKHACUBE-CHOLBON (RS18S)
OBJECT_ID      = 2025-313AU
CENTER_NAME    = EARTH
REF_FRAME      = TEME
TIME_SYSTEM    = UTC
MEAN_ELEMENT_THEORY = SGP/SGP4

EPOCH          = 2026-01-16T11:44:03.513120
MEAN_MOTION    = 15.21466158
ECCENTRICITY   = .00103639
INCLINATION    = 97.4115
RA_OF_ASC_NODE = 93.6608
ARG_OF_PERICENTER = 162.6052
MEAN_ANOMALY   = 197.5541

EPHEMERIS_TYPE = 0
CLASSIFICATION_TYPE = U
NORAD_CAT_ID   = 67290
ELEMENT_SET_NO = 999
REV_AT_EPOCH   = 288
BSTAR          = .35737902E-3
MEAN_MOTION_DOT = .7977E-4
MEAN_MOTION_DDOT = 0

CCSDS_OMM_VERS = 2.0
CREATION_DATE  = 
ORIGINATOR     = 

OBJECT_NAME    = QMR-KWT-2 (RS95S)
OBJECT_ID      = 2025-313AV
CENTER_NAME    = EARTH
REF_FRAME      = TEME
TIME_SYSTEM    = UTC
MEAN_ELEMENT_THEORY = SGP/SGP4

EPOCH          = 2026-01-16T11:43:20.327808
MEAN_MOTION    = 15.21528580
ECCENTRICITY   = .00102578
INCLINATION    = 97.4115
RA_OF_ASC_NODE = 93.6615
ARG_OF_PERICENTER = 162.7326
MEAN_ANOMALY   = 197.4261

EPHEMERIS_TYPE = 0
CLASSIFICATION_TYPE = U
NORAD_CAT_ID   = 67291
ELEMENT_SET_NO = 999
REV_AT_EPOCH   = 288
BSTAR          = .41399784E-3
MEAN_MOTION_DOT = .9271E-4
MEAN_MOTION_DDOT = 0

CCSDS_OMM_VERS = 2.0
CREATION_DATE  = 
ORIGINATOR     = 

OBJECT_NAME    = SITRO-AIS-64
OBJECT_ID      = 2025-313AW
CENTER_NAME    = EARTH
REF_FRAME      = TEME
TIME_SYSTEM    = UTC
MEAN_ELEMENT_THEORY = SGP/SGP4

EPOCH          = 2026-01-16T11:42:24.017472
MEAN_MOTION    = 15.21561773
ECCENTRICITY   = .00100363
INCLINATION    = 97.4118
RA_OF_ASC_NODE = 93.6638
ARG_OF_PERICENTER = 162.3687
MEAN_ANOMALY   = 197.7900

EPHEMERIS_TYPE = 0
CLASSIFICATION_TYPE = U
NORAD_CAT_ID   = 67292
ELEMENT_SET_NO = 999
REV_AT_EPOCH   = 288
BSTAR          = .38307595E-3
MEAN_MOTION_DOT = .858E-4
MEAN_MOTION_DDOT = 0

CCSDS_OMM_VERS = 2.0
CREATION_DATE  = 
ORIGINATOR     = 

OBJECT_NAME    = SCORPION (RS89S)
OBJECT_ID      = 2025-313AX
CENTER_NAME    = EARTH
REF_FRAME      = TEME
TIME_SYSTEM    = UTC
MEAN_ELEMENT_THEORY = SGP/SGP4

EPOCH          = 2026-01-16T11:44:24.432288
MEAN_MOTION    = 15.21338164
ECCENTRICITY   = .00119569
INCLINATION    = 97.4112
RA_OF_ASC_NODE = 93.6583
ARG_OF_PERICENTER = 153.7392
MEAN_ANOMALY   = 206.4452

EPHEMERIS_TYPE = 0
CLASSIFICATION_TYPE = U
NORAD_CAT_ID   = 67293
ELEMENT_SET_NO = 999
REV_AT_EPOCH   = 288
BSTAR          = .15439593E-3
MEAN_MOTION_DOT = .3394E-4
MEAN_MOTION_DDOT = 0

CCSDS_OMM_VERS = 2.0
CREATION_DATE  = 
ORIGINATOR     = 

OBJECT_NAME    = SITRO-AIS-63
OBJECT_ID      = 2025-313AY
CENTER_NAME    = EARTH
REF_FRAME      = TEME
TIME_SYSTEM    = UTC
MEAN_ELEMENT_THEORY = SGP/SGP4

EPOCH          = 2026-01-16T11:41:38.470848
MEAN_MOTION    = 15.21603594
ECCENTRICITY   = .00099269
INCLINATION    = 97.4122
RA_OF_ASC_NODE = 93.6649
ARG_OF_PERICENTER = 162.5983
MEAN_ANOMALY   = 197.5595

EPHEMERIS_TYPE = 0
CLASSIFICATION_TYPE = U
NORAD_CAT_ID   = 67294
ELEMENT_SET_NO = 999
REV_AT_EPOCH   = 288
BSTAR          = .36825264E-3
MEAN_MOTION_DOT = .8255E-4
MEAN_MOTION_DDOT = 0

