HORS 5                  
1 67283U 25313AM  26016.49200352  .00007101  00000+0  32091-3 0  9996
2 67283  97.4116  93.6488 0011416 165.1420 195.0153 15.21195851  2886
LOBACHEVSKY (RS83S)     
1 67284U 25313AN  26016.62467800  .00002793  00000+0  12888-3 0  9999
2 67284  97.4099  93.7725 0011428 164.5199 195.6388 15.21003507  2906
NASBSAT-2               
1 67285U 25313AP  26016.49114849  .00006454  00000+0  29152-3 0  9997
2 67285  97.4093  93.6435 0011030 166.5282 193.6250 15.21253232  2887
2025-313AQ              
1 67286U 25313AQ  26016.95102667  .00009341  00000+0  42043-3 0  9996
2 67286  97.4113  94.1113 0010798 159.8863 200.2800 15.21252048  2958
LUCA (RS90S)            
1 67287U 25313AR  26016.48989209  .00007423  00000+0  33364-3 0  9995
2 67287  97.4115  93.6594 0010638 163.2198 196.9392 15.21374962  2880
2025-313AS              
1 67288U 25313AS  26016.62239273  .00004692  00000+0  21290-3 0  9991
2 67288  97.4103  93.7837 0012514 155.6332 204.5498 15.21229495  2905
NASBSAT-1               
1 67289U 25313AT  26016.48870957  .00010130  00000+0  45191-3 0  9996
2 67289  97.4116  93.6615 0010522 163.7222 196.4354 15.21536808  2884
SAKHACUBE-CHOLBON (RS1*)
1 67290U 25313AU  26016.48892955  .00007977  00000+0  35738-3 0  9991
2 67290  97.4115  93.6608 0010363 162.6052 197.5541 15.21466158  2889
QMR-KWT-2 (RS95S)       
1 67291U 25313AV  26016.48842972  .00009271  00000+0  41400-3 0  9998
2 67291  97.4115  93.6615 0010257 162.7326 197.4261 15.21528580  2881
SITRO-AIS-64            
1 67292U 25313AW  26016.48777798  .00008580  00000+0  38308-3 0  9997
2 67292  97.4118  93.6638 0010036 162.3687 197.7900 15.21561773  2885
SCORPION (RS89S)        
1 67293U 25313AX  26016.48917167  .00003394  00000+0  15440-3 0  9994
2 67293  97.4112  93.6583 0011956 153.7392 206.4452 15.21338164  2884
SITRO-AIS-63            
1 67294U 25313AY  26016.48725082  .00008255  00000+0  36825-3 0  9999
2 67294  97.4122  93.6649 0009926 162.5983 197.5595 15.21603594  2887
